STARLETTE               
1 07646U 75010A   22226.52377977 -.00000145  00000+0 -16487-6 0  9990
2 07646  49.8215 241.0066 0205766 109.4009 252.9247 13.82313270400513
LAGEOS 1                
1 08820U 76039A   22225.30278306  .00000018  00000+0  00000+0 0  9992
2 08820 109.8524  58.4654 0045106 242.6425 273.6296  6.38664837823483
AJISAI (EGS)            
1 16908U 86061A   22226.54440972 -.00000089  00000+0  56510-4 0  9992
2 16908  50.0086 140.4167 0011193 210.0683 127.9587 12.44497007305727
COSMOS 1989 (ETALON 1)  
1 19751U 89001C   22226.26134300  .00000006  00000+0  00000+0 0  9998
2 19751  64.3152 120.3980 0023798 213.3787 321.4723  2.13156247261461
COSMOS 2024 (ETALON 2)  
1 20026U 89039C   22226.54871172 -.00000079  00000+0  00000+0 0  9993
2 20026  65.5349 358.4163 0018510 218.4900  96.3817  2.13204267258593
LAGEOS 2                
1 22195U 92070B   22224.64618270 -.00000009  00000+0  00000+0 0  9991
2 22195  52.6602  74.2806 0138321 293.3919  80.0386  6.47293765704491
STELLA                  
1 22824U 93061B   22226.53288198 -.00000040  00000+0  26278-5 0  9999
2 22824  98.9628 248.9141 0006253 357.2529 176.5266 14.27392332504660
LARES                   
1 38077U 12006A   22226.21265990 -.00000050  00000+0 -69093-4 0  9999
2 38077  69.4923 168.6450 0011254 280.0970  79.8775 12.54931230481151
